{
  "type": "FeatureCollection",
  "features": [
    {
      "type": "Feature",
      "properties": {
        "norad_id": 35080,
        "name": "IRIDIUM 33 DEB",
        "group": "iridium-33-debris",
        "lat": -6.00779753362876,
        "lon": 44.98114302218319,
        "alt_km": 637.3210618880003,
        "timestamp": "2025-12-27T08:36:18.769404+00:00",
        "meta_object_name": "IRIDIUM 33 DEB",
        "meta_object_id": "1997-051PF",
        "meta_epoch": "2025-12-26T21:19:55.703424",
        "meta_mean_motion": 14.87648712,
        "meta_eccentricity": 0.0057997,
        "meta_inclination": 86.2085,
        "meta_ra_of_asc_node": 45.606,
        "meta_arg_of_pericenter": 130.4806,
        "meta_mean_anomaly": 230.1496,
        "meta_ephemeris_type": 0,
        "meta_classification_type": "U",
        "meta_norad_cat_id": 35080,
        "meta_element_set_no": 999,
        "meta_rev_at_epoch": 69898,
        "meta_bstar": 0.0073607,
        "meta_mean_motion_dot": 0.00069659,
        "meta_mean_motion_ddot": 0,
        "tle_line1": "1 35080U 97051PF  25360.88883916  .00069659  00000+0  73607-2 0  9994",
        "tle_line2": "2 35080  86.2085  45.6060 0057997 130.4806 230.1496 14.87648712698980"
      },
      "geometry": {
        "type": "Point",
        "coordinates": [
          44.98114302218319,
          -6.00779753362876
        ]
      }
    },
    {
      "type": "Feature",
      "properties": {
        "norad_id": 35297,
        "name": "IRIDIUM 33 DEB",
        "group": "iridium-33-debris",
        "lat": 55.563591121199714,
        "lon": 61.81111590392726,
        "alt_km": 726.5134760400315,
        "timestamp": "2025-12-27T08:36:18.769422+00:00",
        "meta_object_name": "IRIDIUM 33 DEB",
        "meta_object_id": "1997-051PM",
        "meta_epoch": "2025-12-26T10:44:46.667040",
        "meta_mean_motion": 14.4521519,
        "meta_eccentricity": 0.0018076,
        "meta_inclination": 86.3846,
        "meta_ra_of_asc_node": 56.909,
        "meta_arg_of_pericenter": 100.7298,
        "meta_mean_anomaly": 259.594,
        "meta_ephemeris_type": 0,
        "meta_classification_type": "U",
        "meta_norad_cat_id": 35297,
        "meta_element_set_no": 999,
        "meta_rev_at_epoch": 70624,
        "meta_bstar": 0.00060666,
        "meta_mean_motion_dot": 2.149e-05,
        "meta_mean_motion_ddot": 0,
        "tle_line1": "1 35297U 97051PM  25360.44776235  .00002149  00000+0  60666-3 0  9994",
        "tle_line2": "2 35297  86.3846  56.9090 0018076 100.7298 259.5940 14.45215190706246"
      },
      "geometry": {
        "type": "Point",
        "coordinates": [
          61.81111590392726,
          55.563591121199714
        ]
      }
    },
    {
      "type": "Feature",
      "properties": {
        "norad_id": 35299,
        "name": "IRIDIUM 33 DEB",
        "group": "iridium-33-debris",
        "lat": 55.85064237589376,
        "lon": -158.67144336809025,
        "alt_km": 734.4774061787248,
        "timestamp": "2025-12-27T08:36:18.769438+00:00",
        "meta_object_name": "IRIDIUM 33 DEB",
        "meta_object_id": "1997-051PP",
        "meta_epoch": "2025-12-27T01:30:21.708864",
        "meta_mean_motion": 14.40934949,
        "meta_eccentricity": 0.0058407,
        "meta_inclination": 86.2878,
        "meta_ra_of_asc_node": 26.9497,
        "meta_arg_of_pericenter": 56.6826,
        "meta_mean_anomaly": 333.1612,
        "meta_ephemeris_type": 0,
        "meta_classification_type": "U",
        "meta_norad_cat_id": 35299,
        "meta_element_set_no": 999,
        "meta_rev_at_epoch": 86537,
        "meta_bstar": 0.0009817,
        "meta_mean_motion_dot": 3.234e-05,
        "meta_mean_motion_ddot": 0,
        "tle_line1": "1 35299U 97051PP  25361.06275126  .00003234  00000+0  98170-3 0  9995",
        "tle_line2": "2 35299  86.2878  26.9497 0058407  56.6826 333.1612 14.40934949865378"
      },
      "geometry": {
        "type": "Point",
        "coordinates": [
          -158.67144336809025,
          55.85064237589376
        ]
      }
    },
    {
      "type": "Feature",
      "properties": {
        "norad_id": 35480,
        "name": "IRIDIUM 33 DEB",
        "group": "iridium-33-debris",
        "lat": -29.36799249617983,
        "lon": 16.51737563604624,
        "alt_km": 732.4587037655156,
        "timestamp": "2025-12-27T08:36:18.769449+00:00",
        "meta_object_name": "IRIDIUM 33 DEB",
        "meta_object_id": "1997-051QA",
        "meta_epoch": "2025-12-26T19:29:20.805504",
        "meta_mean_motion": 14.49821486,
        "meta_eccentricity": 0.00157721,
        "meta_inclination": 86.3559,
        "meta_ra_of_asc_node": 18.8095,
        "meta_arg_of_pericenter": 63.8067,
        "meta_mean_anomaly": 296.4757,
        "meta_ephemeris_type": 0,
        "meta_classification_type": "U",
        "meta_norad_cat_id": 35480,
        "meta_element_set_no": 999,
        "meta_rev_at_epoch": 87235,
        "meta_bstar": 0.00059301191,
        "meta_mean_motion_dot": 2.31e-05,
        "meta_mean_motion_ddot": 0,
        "tle_line1": "1 35480U 97051QA  25360.81204636  .00002310  00000+0  59301-3 0  9994",
        "tle_line2": "2 35480  86.3559  18.8095 0015772  63.8067 296.4757 14.49821486872353"
      },
      "geometry": {
        "type": "Point",
        "coordinates": [
          16.51737563604624,
          -29.36799249617983
        ]
      }
    },
    {
      "type": "Feature",
      "properties": {
        "norad_id": 35484,
        "name": "IRIDIUM 33 DEB",
        "group": "iridium-33-debris",
        "lat": -26.41198150265559,
        "lon": 167.71386398513752,
        "alt_km": 584.9471836270159,
        "timestamp": "2025-12-27T08:36:18.769459+00:00",
        "meta_object_name": "IRIDIUM 33 DEB",
        "meta_object_id": "1997-051QE",
        "meta_epoch": "2025-12-23T05:59:10.354560",
        "meta_mean_motion": 14.99264182,
        "meta_eccentricity": 0.00245796,
        "meta_inclination": 86.3609,
        "meta_ra_of_asc_node": 347.8264,
        "meta_arg_of_pericenter": 91.5392,
        "meta_mean_anomaly": 268.8655,
        "meta_ephemeris_type": 0,
        "meta_classification_type": "U",
        "meta_norad_cat_id": 35484,
        "meta_element_set_no": 999,
        "meta_rev_at_epoch": 62173,
        "meta_bstar": 0.0029536278,
        "meta_mean_motion_dot": 0.00036413,
        "meta_mean_motion_ddot": 0,
        "tle_line1": "1 35484U 97051QE  25357.24942540  .00036413  00000+0  29536-2 0  9991",
        "tle_line2": "2 35484  86.3609 347.8264 0024579  91.5392 268.8655 14.99264182621733"
      },
      "geometry": {
        "type": "Point",
        "coordinates": [
          167.71386398513752,
          -26.41198150265559
        ]
      }
    },
    {
      "type": "Feature",
      "properties": {
        "norad_id": 35488,
        "name": "IRIDIUM 33 DEB",
        "group": "iridium-33-debris",
        "lat": -22.732454645621115,
        "lon": 115.68046780912967,
        "alt_km": 640.9033081850539,
        "timestamp": "2025-12-27T08:36:18.769469+00:00",
        "meta_object_name": "IRIDIUM 33 DEB",
        "meta_object_id": "1997-051QJ",
        "meta_epoch": "2025-12-27T02:50:12.410016",
        "meta_mean_motion": 14.83437046,
        "meta_eccentricity": 0.0027504,
        "meta_inclination": 86.3244,
        "meta_ra_of_asc_node": 294.248,
        "meta_arg_of_pericenter": 354.9458,
        "meta_mean_anomaly": 5.1482,
        "meta_ephemeris_type": 0,
        "meta_classification_type": "U",
        "meta_norad_cat_id": 35488,
        "meta_element_set_no": 999,
        "meta_rev_at_epoch": 88479,
        "meta_bstar": 0.00205,
        "meta_mean_motion_dot": 0.00016991,
        "meta_mean_motion_ddot": 0,
        "tle_line1": "1 35488U 97051QJ  25361.11819919  .00016991  00000+0  20500-2 0  9990",
        "tle_line2": "2 35488  86.3244 294.2480 0027504 354.9458   5.1482 14.83437046884798"
      },
      "geometry": {
        "type": "Point",
        "coordinates": [
          115.68046780912967,
          -22.732454645621115
        ]
      }
    },
    {
      "type": "Feature",
      "properties": {
        "norad_id": 35616,
        "name": "IRIDIUM 33 DEB",
        "group": "iridium-33-debris",
        "lat": -63.85592449219613,
        "lon": -28.372085717023865,
        "alt_km": 637.8743796793324,
        "timestamp": "2025-12-27T08:36:18.769480+00:00",
        "meta_object_name": "IRIDIUM 33 DEB",
        "meta_object_id": "1997-051QN",
        "meta_epoch": "2025-12-21T16:46:45.287328",
        "meta_mean_motion": 14.82015021,
        "meta_eccentricity": 0.00114093,
        "meta_inclination": 86.3545,
        "meta_ra_of_asc_node": 341.6744,
        "meta_arg_of_pericenter": 134.0095,
        "meta_mean_anomaly": 226.2069,
        "meta_ephemeris_type": 0,
        "meta_classification_type": "U",
        "meta_norad_cat_id": 35616,
        "meta_element_set_no": 999,
        "meta_rev_at_epoch": 87707,
        "meta_bstar": 0.0013754653,
        "meta_mean_motion_dot": 0.00010957,
        "meta_mean_motion_ddot": 0,
        "tle_line1": "1 35616U 97051QN  25355.69913527  .00010957  00000+0  13755-2 0  9999",
        "tle_line2": "2 35616  86.3545 341.6744 0011409 134.0095 226.2069 14.82015021877070"
      },
      "geometry": {
        "type": "Point",
        "coordinates": [
          -28.372085717023865,
          -63.85592449219613
        ]
      }
    }
  ]
}